{
    "links": {
        "self": "http://www.neowsapp.com/rest/v1/neo/3778623?api_key=iIulBulltgU6a56xZRHN4H3l9WmuAYTsLGpBGhQ2"
    },
    "id": "3778623",
    "neo_reference_id": "3778623",
    "name": "(2017 OW18)",
    "designation": "2017 OW18",
    "nasa_jpl_url": "http://ssd.jpl.nasa.gov/sbdb.cgi?sstr=3778623",
    "absolute_magnitude_h": 24.7,
    "estimated_diameter": {
        "kilometers": {
            "estimated_diameter_min": 0.0305179233,
            "estimated_diameter_max": 0.0682401509
        },
        "meters": {
            "estimated_diameter_min": 30.5179232594,
            "estimated_diameter_max": 68.2401509401
        },
        "miles": {
            "estimated_diameter_min": 0.0189629525,
            "estimated_diameter_max": 0.0424024508
        },
        "feet": {
            "estimated_diameter_min": 100.1244233463,
            "estimated_diameter_max": 223.8850168104
        }
    },
    "is_potentially_hazardous_asteroid": false,
    "close_approach_data": [
        {
            "close_approach_date": "1906-06-11",
            "close_approach_date_full": "1906-Jun-11 08:07",
            "epoch_date_close_approach": -2005746780000,
            "relative_velocity": {
                "kilometers_per_second": "18.5015732279",
                "kilometers_per_hour": "66605.663620566",
                "miles_per_hour": "41386.1691535678"
            },
            "miss_distance": {
                "astronomical": "0.4305885366",
                "lunar": "167.4989407374",
                "kilometers": "64415127.921777042",
                "miles": "40025704.4740134996"
            },
            "orbiting_body": "Earth"
        },
        {
            "close_approach_date": "1908-06-18",
            "close_approach_date_full": "1908-Jun-18 08:25",
            "epoch_date_close_approach": -1941982500000,
            "relative_velocity": {
                "kilometers_per_second": "4.6069563669",
                "kilometers_per_hour": "16585.0429207761",
                "miles_per_hour": "10305.3006970789"
            },
            "miss_distance": {
                "astronomical": "1.8751343843",
                "lunar": "729.4272754927",
                "kilometers": "280516109.855041441",
                "miles": "174304628.0509202458"
            },
            "orbiting_body": "Juptr"
        },
        {
            "close_approach_date": "2017-07-23",
            "close_approach_date_full": "2017-Jul-23 17:06",
            "epoch_date_close_approach": 1500829560000,
            "relative_velocity": {
                "kilometers_per_second": "6.6438502989",
                "kilometers_per_hour": "23917.8610759305",
                "miles_per_hour": "14861.6287335414"
            },
            "miss_distance": {
                "astronomical": "0.0962637887",
                "lunar": "37.4466138043",
                "kilometers": "14400857.747650069",
                "miles": "8948278.0672221922"
            },
            "orbiting_body": "Earth"
        }
    ],
    "orbital_data": {
        "orbit_id": "6",
        "orbit_determination_date": "2017-08-28 06:19:27",
        "first_observation_date": "2017-07-27",
        "last_observation_date": "2017-08-25",
        "data_arc_in_days": 29,
        "observations_used": 26,
        "orbit_uncertainty": "7",
        "minimum_orbit_intersection": ".0891282",
        "jupiter_tisserand_invariant": "3.177",
        "epoch_osculation": "2459000.5",
        "eccentricity": ".5713720562746104",
        "semi_major_axis": "2.569571206500529",
        "inclination": "2.573796532961599",
        "ascending_node_longitude": "282.0491030592459",
        "orbital_period": "1504.490371037212",
        "perihelion_distance": "1.10139002249829",
        "perihelion_argument": "27.03834397020324",
        "aphelion_distance": "4.037752390502768",
        "perihelion_time": "2459469.615358997995",
        "mean_anomaly": "247.7483482178423",
        "mean_motion": ".2392836849808564",
        "equinox": "J2000",
        "orbit_class": {
            "orbit_class_type": "AMO",
            "orbit_class_description": "Near-Earth asteroid orbits similar to that of 1221 Amor",
            "orbit_class_range": "1.017 AU < q (perihelion) < 1.3 AU"
        }
    },
    "is_sentry_object": false
}